0 IRIDIUM 33 DEB
1 36011U 97051US  13280.31744253  .00000634  00000-0  22985-3 0  1125
2 36011 086.3469 125.0080 0021792 351.1450 008.9668 14.31738148216393
0 IRIDIUM 33 DEB
1 36011U 97051US  13287.86542848  .00000840  00000-0  30685-3 0  1134
2 36011 086.3426 121.8312 0021426 328.8542 031.1854 14.31751067217475
0 IRIDIUM 33 DEB
1 36011U 97051US  13289.82229411  .00000801  00000-0  29219-3 0  1149
2 36011 086.3464 121.0130 0020961 321.7871 038.1880 14.31753739217752
0 IRIDIUM 33 DEB
1 36011U 97051US  13292.26838126  .00000919  00000-0  33655-3 0  1150
2 36011 086.3458 119.9776 0020658 315.1536 044.8139 14.31759568218102
0 IRIDIUM 33 DEB
1 36011U 97051US  13293.80591394  .00000939  00000-0  34377-3 0  1169
2 36011 086.3458 119.3285 0020658 310.1616 049.7853 14.31762832218324
